{
  "type": "FeatureCollection",
  "features": [
    {
      "type": "Feature",
      "properties": {
        "norad_id": 30921,
        "name": "FENGYUN 1C DEB",
        "group": "fengyun-1c-debris",
        "lat": 59.40185731875577,
        "lon": -76.19848447937983,
        "alt_km": 783.4318718070999,
        "timestamp": "2025-12-26T18:39:32.559660+00:00",
        "meta_object_name": "FENGYUN 1C DEB",
        "meta_object_id": "1999-025AZK",
        "meta_epoch": "2025-12-26T04:50:14.407296",
        "meta_mean_motion": 14.3285114,
        "meta_eccentricity": 0.00163814,
        "meta_inclination": 98.8416,
        "meta_ra_of_asc_node": 87.9533,
        "meta_arg_of_pericenter": 354.2214,
        "meta_mean_anomaly": 36.0003,
        "meta_ephemeris_type": 0,
        "meta_classification_type": "U",
        "meta_norad_cat_id": 30921,
        "meta_element_set_no": 999,
        "meta_rev_at_epoch": 97017,
        "meta_bstar": 0.0016563608,
        "meta_mean_motion_dot": 4.483e-05,
        "meta_mean_motion_ddot": 0,
        "tle_line1": "1 30921U 99025AZK 25360.20155564  .00004483  00000+0  16564-2 0  9996",
        "tle_line2": "2 30921  98.8416  87.9533 0016381 354.2214  36.0003 14.32851140970173"
      },
      "geometry": {
        "type": "Point",
        "coordinates": [
          -76.19848447937983,
          59.40185731875577
        ]
      }
    },
    {
      "type": "Feature",
      "properties": {
        "norad_id": 30922,
        "name": "FENGYUN 1C DEB",
        "group": "fengyun-1c-debris",
        "lat": 11.142066863151063,
        "lon": 14.516581778615834,
        "alt_km": 825.1014958494143,
        "timestamp": "2025-12-26T18:39:32.559670+00:00",
        "meta_object_name": "FENGYUN 1C DEB",
        "meta_object_id": "1999-025AZL",
        "meta_epoch": "2025-12-26T12:32:51.509760",
        "meta_mean_motion": 14.17493129,
        "meta_eccentricity": 0.00140143,
        "meta_inclination": 98.6396,
        "meta_ra_of_asc_node": 15.985,
        "meta_arg_of_pericenter": 15.2933,
        "meta_mean_anomaly": 137.4014,
        "meta_ephemeris_type": 0,
        "meta_classification_type": "U",
        "meta_norad_cat_id": 30922,
        "meta_element_set_no": 999,
        "meta_rev_at_epoch": 96759,
        "meta_bstar": 0.00061250438,
        "meta_mean_motion_dot": 1.201e-05,
        "meta_mean_motion_ddot": 0,
        "tle_line1": "1 30922U 99025AZL 25360.52281840  .00001201  00000+0  61250-3 0  9997",
        "tle_line2": "2 30922  98.6396  15.9850 0014014  15.2933 137.4014 14.17493129967597"
      },
      "geometry": {
        "type": "Point",
        "coordinates": [
          14.516581778615834,
          11.142066863151063
        ]
      }
    },
    {
      "type": "Feature",
      "properties": {
        "norad_id": 30925,
        "name": "FENGYUN 1C DEB",
        "group": "fengyun-1c-debris",
        "lat": -2.2333921917572446,
        "lon": 133.50304976918542,
        "alt_km": 773.1300247296786,
        "timestamp": "2025-12-26T18:39:32.559681+00:00",
        "meta_object_name": "FENGYUN 1C DEB",
        "meta_object_id": "1999-025AZP",
        "meta_epoch": "2025-12-26T15:24:53.741952",
        "meta_mean_motion": 14.43349249,
        "meta_eccentricity": 0.00333804,
        "meta_inclination": 98.8809,
        "meta_ra_of_asc_node": 133.0128,
        "meta_arg_of_pericenter": 197.4649,
        "meta_mean_anomaly": 178.3104,
        "meta_ephemeris_type": 0,
        "meta_classification_type": "U",
        "meta_norad_cat_id": 30925,
        "meta_element_set_no": 999,
        "meta_rev_at_epoch": 97273,
        "meta_bstar": 0.0028007907,
        "meta_mean_motion_dot": 9.474e-05,
        "meta_mean_motion_ddot": 0,
        "tle_line1": "1 30925U 99025AZP 25360.64228868  .00009474  00000+0  28008-2 0  9997",
        "tle_line2": "2 30925  98.8809 133.0128 0033380 197.4649 178.3104 14.43349249972733"
      },
      "geometry": {
        "type": "Point",
        "coordinates": [
          133.50304976918542,
          -2.2333921917572446
        ]
      }
    },
    {
      "type": "Feature",
      "properties": {
        "norad_id": 30926,
        "name": "FENGYUN 1C DEB",
        "group": "fengyun-1c-debris",
        "lat": -42.18167939563192,
        "lon": -48.833409127261774,
        "alt_km": 497.62746563343353,
        "timestamp": "2025-12-26T18:39:32.559691+00:00",
        "meta_object_name": "FENGYUN 1C DEB",
        "meta_object_id": "1999-025AZQ",
        "meta_epoch": "2025-12-26T14:00:29.869920",
        "meta_mean_motion": 14.89553102,
        "meta_eccentricity": 0.01642581,
        "meta_inclination": 98.8035,
        "meta_ra_of_asc_node": 302.8781,
        "meta_arg_of_pericenter": 337.3485,
        "meta_mean_anomaly": 22.0536,
        "meta_ephemeris_type": 0,
        "meta_classification_type": "U",
        "meta_norad_cat_id": 30926,
        "meta_element_set_no": 999,
        "meta_rev_at_epoch": 973,
        "meta_bstar": 0.00070939287,
        "meta_mean_motion_dot": 8.654e-05,
        "meta_mean_motion_ddot": 0,
        "tle_line1": "1 30926U 99025AZQ 25360.58367905  .00008654  00000+0  70939-3 0  9997",
        "tle_line2": "2 30926  98.8035 302.8781 0164258 337.3485  22.0536 14.89553102  9738"
      },
      "geometry": {
        "type": "Point",
        "coordinates": [
          -48.833409127261774,
          -42.18167939563192
        ]
      }
    },
    {
      "type": "Feature",
      "properties": {
        "norad_id": 30927,
        "name": "FENGYUN 1C DEB",
        "group": "fengyun-1c-debris",
        "lat": 56.38965958706165,
        "lon": 47.42862702380291,
        "alt_km": 858.2587390431363,
        "timestamp": "2025-12-26T18:39:32.559701+00:00",
        "meta_object_name": "FENGYUN 1C DEB",
        "meta_object_id": "1999-025AZR",
        "meta_epoch": "2025-12-25T23:38:35.711520",
        "meta_mean_motion": 14.09051084,
        "meta_eccentricity": 0.0098413,
        "meta_inclination": 99.1811,
        "meta_ra_of_asc_node": 60.7045,
        "meta_arg_of_pericenter": 328.3409,
        "meta_mean_anomaly": 31.1864,
        "meta_ephemeris_type": 0,
        "meta_classification_type": "U",
        "meta_norad_cat_id": 30927,
        "meta_element_set_no": 999,
        "meta_rev_at_epoch": 95870,
        "meta_bstar": 0.0015248182,
        "meta_mean_motion_dot": 2.718e-05,
        "meta_mean_motion_ddot": 0,
        "tle_line1": "1 30927U 99025AZR 25359.98513555  .00002718  00000+0  15248-2 0  9990",
        "tle_line2": "2 30927  99.1811  60.7045 0098413 328.3409  31.1864 14.09051084958702"
      },
      "geometry": {
        "type": "Point",
        "coordinates": [
          47.42862702380291,
          56.38965958706165
        ]
      }
    },
    {
      "type": "Feature",
      "properties": {
        "norad_id": 30928,
        "name": "FENGYUN 1C DEB",
        "group": "fengyun-1c-debris",
        "lat": -4.9378109305472915,
        "lon": 88.78833382405223,
        "alt_km": 839.8905717468688,
        "timestamp": "2025-12-26T18:39:32.559711+00:00",
        "meta_object_name": "FENGYUN 1C DEB",
        "meta_object_id": "1999-025AZS",
        "meta_epoch": "2025-12-26T11:42:50.156064",
        "meta_mean_motion": 13.22258231,
        "meta_eccentricity": 0.04498383,
        "meta_inclination": 98.8822,
        "meta_ra_of_asc_node": 87.7674,
        "meta_arg_of_pericenter": 358.1718,
        "meta_mean_anomaly": 60.3705,
        "meta_ephemeris_type": 0,
        "meta_classification_type": "U",
        "meta_norad_cat_id": 30928,
        "meta_element_set_no": 999,
        "meta_rev_at_epoch": 90530,
        "meta_bstar": 0.0012102877,
        "meta_mean_motion_dot": 8.24e-06,
        "meta_mean_motion_ddot": 0,
        "tle_line1": "1 30928U 99025AZS 25360.48808051  .00000824  00000+0  12103-2 0  9999",
        "tle_line2": "2 30928  98.8822  87.7674 0449838 358.1718  60.3705 13.22258231905306"
      },
      "geometry": {
        "type": "Point",
        "coordinates": [
          88.78833382405223,
          -4.9378109305472915
        ]
      }
    },
    {
      "type": "Feature",
      "properties": {
        "norad_id": 30930,
        "name": "FENGYUN 1C DEB",
        "group": "fengyun-1c-debris",
        "lat": -8.879040940702911,
        "lon": -152.84793898446827,
        "alt_km": 814.6090850886831,
        "timestamp": "2025-12-26T18:39:32.559721+00:00",
        "meta_object_name": "FENGYUN 1C DEB",
        "meta_object_id": "1999-025AZU",
        "meta_epoch": "2025-12-26T01:20:20.657760",
        "meta_mean_motion": 14.37418558,
        "meta_eccentricity": 0.01096221,
        "meta_inclination": 98.2142,
        "meta_ra_of_asc_node": 27.7556,
        "meta_arg_of_pericenter": 66.7393,
        "meta_mean_anomaly": 348.8311,
        "meta_ephemeris_type": 0,
        "meta_classification_type": "U",
        "meta_norad_cat_id": 30930,
        "meta_element_set_no": 999,
        "meta_rev_at_epoch": 98523,
        "meta_bstar": 0.00033220225,
        "meta_mean_motion_dot": 1.022e-05,
        "meta_mean_motion_ddot": 0,
        "tle_line1": "1 30930U 99025AZU 25360.05579465  .00001022  00000+0  33220-3 0  9994",
        "tle_line2": "2 30930  98.2142  27.7556 0109622  66.7393 348.8311 14.37418558985230"
      },
      "geometry": {
        "type": "Point",
        "coordinates": [
          -152.84793898446827,
          -8.879040940702911
        ]
      }
    }
  ]
}